{"fetched_at":"2026-07-06T08:47:14.927Z","source":"https://celestrak.org/NORAD/elements/gp.php?NAME=PLEIADES&FORMAT=JSON","constellation":"pleiades-neo","records":[{"OBJECT_NAME":"PLEIADES NEO 3","OBJECT_ID":"2021-034A","EPOCH":"2026-07-05T14:55:39.150624","CLASSIFICATION_TYPE":"U","MEAN_MOTION":14.81673458,"ECCENTRICITY":0.00013315,"INCLINATION":97.8933,"RA_OF_ASC_NODE":261.1234,"ARG_OF_PERICENTER":91.7672,"MEAN_ANOMALY":268.3694,"EPHEMERIS_TYPE":0,"NORAD_CAT_ID":48268,"ELEMENT_SET_NO":999,"REV_AT_EPOCH":28038,"BSTAR":0.000033853387,"MEAN_MOTION_DOT":0.00000214,"MEAN_MOTION_DDOT":0},{"OBJECT_NAME":"PLEIADES NEO 4","OBJECT_ID":"2021-073E","EPOCH":"2026-07-05T15:44:15.679392","CLASSIFICATION_TYPE":"U","MEAN_MOTION":14.8167574,"ECCENTRICITY":0.00013,"INCLINATION":97.894,"RA_OF_ASC_NODE":261.1531,"ARG_OF_PERICENTER":99.097,"MEAN_ANOMALY":261.039,"EPHEMERIS_TYPE":0,"NORAD_CAT_ID":49070,"ELEMENT_SET_NO":999,"REV_AT_EPOCH":26410,"BSTAR":0.000047801,"MEAN_MOTION_DOT":0.00000324,"MEAN_MOTION_DDOT":0}]}
